[{"OBJECT_NAME":"STARLINK-6199","OBJECT_ID":"2023-065BA","EPOCH":"2026-03-09T22:00:01.999584","MEAN_MOTION":15.12854683,"ECCENTRICITY":0.00012558,"INCLINATION":43.0009,"RA_OF_ASC_NODE":221.3675,"ARG_OF_PERICENTER":299.9377,"MEAN_ANOMALY":207.453,"EPHEMERIS_TYPE":0,"CLASSIFICATION_TYPE":"U","NORAD_CAT_ID":56551,"ELEMENT_SET_NO":999,"REV_AT_EPOCH":577,"BSTAR":0.0068922867,"MEAN_MOTION_DOT":0.00125298,"MEAN_MOTION_DDOT":0},{"OBJECT_NAME":"TABLETSAT-AURORA","OBJECT_ID":"2014-033H","EPOCH":"2026-03-09T22:49:06.914208","MEAN_MOTION":15.16184908,"ECCENTRICITY":0.00118478,"INCLINATION":98.0327,"RA_OF_ASC_NODE":137.2566,"ARG_OF_PERICENTER":188.6042,"MEAN_ANOMALY":171.4988,"EPHEMERIS_TYPE":0,"CLASSIFICATION_TYPE":"U","NORAD_CAT_ID":40017,"ELEMENT_SET_NO":999,"REV_AT_EPOCH":64016,"BSTAR":6.1648456e-5,"MEAN_MOTION_DOT":1.116e-5,"MEAN_MOTION_DDOT":0}]
